[{"OBJECT_NAME":"TIANHUI 2-02B","OBJECT_ID":"2021-074B","EPOCH":"2026-03-09T12:16:24.599712","MEAN_MOTION":15.16781044,"ECCENTRICITY":0.0002039,"INCLINATION":97.4828,"RA_OF_ASC_NODE":73.0429,"ARG_OF_PERICENTER":85.7356,"MEAN_ANOMALY":274.411,"EPHEMERIS_TYPE":0,"CLASSIFICATION_TYPE":"U","NORAD_CAT_ID":49072,"ELEMENT_SET_NO":999,"REV_AT_EPOCH":25216,"BSTAR":0.0001397,"MEAN_MOTION_DOT":2.676e-5,"MEAN_MOTION_DDOT":0},{"OBJECT_NAME":"STARLINK-30289","OBJECT_ID":"2023-122X","EPOCH":"2026-03-09T22:00:01.999584","MEAN_MOTION":15.154502,"ECCENTRICITY":0.00025448,"INCLINATION":43.0011,"RA_OF_ASC_NODE":79.8606,"ARG_OF_PERICENTER":284.0605,"MEAN_ANOMALY":121.5991,"EPHEMERIS_TYPE":0,"CLASSIFICATION_TYPE":"U","NORAD_CAT_ID":57653,"ELEMENT_SET_NO":999,"REV_AT_EPOCH":547,"BSTAR":0.0047703811,"MEAN_MOTION_DOT":0.0009282,"MEAN_MOTION_DDOT":0}]
